STARLINK-31997          
1 60288U 24132L   26068.35407351 -.00001427  00000+0 -36062-4 0  9992
2 60288  53.1610  53.6553 0001354  80.5679 279.5475 15.30189170 91517
TOMORROW-S2             
1 60485U 24149T   26068.75188364  .00008133  00000+0  27683-3 0  9990
2 60485  97.3857 150.0385 0001648 234.3331 125.7757 15.30674935 86869
